SIRIUS-1                
1 26390U 00035A   07271.88258621  .00000020  00000-0  10000-3 0  1869
2 26390  62.1544 260.1374 2682789 269.4609  59.9788  1.00278317 26558
SIRIUS-2                
1 26483U 00051A   07272.55321627  .00000087  00000-0  10000-3 0  9504
2 26483  63.6204 140.2553 2658130 270.8149  59.2913  1.00279836 25891
SIRIUS-3                
1 26626U 00077A   07272.21598000 -.00000150  00000-0  10000-3 0   979
2 26626  63.9909  20.0375 2671146 269.4311  60.3684  1.00276297 25020



